{
    "links": {
        "self": "http://www.neowsapp.com/rest/v1/neo/3414403?api_key=iIulBulltgU6a56xZRHN4H3l9WmuAYTsLGpBGhQ2"
    },
    "id": "3414403",
    "neo_reference_id": "3414403",
    "name": "(2008 MV1)",
    "designation": "2008 MV1",
    "nasa_jpl_url": "http://ssd.jpl.nasa.gov/sbdb.cgi?sstr=3414403",
    "absolute_magnitude_h": 22.2,
    "estimated_diameter": {
        "kilometers": {
            "estimated_diameter_min": 0.096506147,
            "estimated_diameter_max": 0.2157943048
        },
        "meters": {
            "estimated_diameter_min": 96.5061469579,
            "estimated_diameter_max": 215.7943048444
        },
        "miles": {
            "estimated_diameter_min": 0.059966121,
            "estimated_diameter_max": 0.134088323
        },
        "feet": {
            "estimated_diameter_min": 316.6212271853,
            "estimated_diameter_max": 707.9865871058
        }
    },
    "is_potentially_hazardous_asteroid": false,
    "close_approach_data": [
        {
            "close_approach_date": "2008-06-22",
            "close_approach_date_full": "2008-Jun-22 21:12",
            "epoch_date_close_approach": 1214169120000,
            "relative_velocity": {
                "kilometers_per_second": "14.4851731243",
                "kilometers_per_hour": "52146.6232474418",
                "miles_per_hour": "32401.883761723"
            },
            "miss_distance": {
                "astronomical": "0.0551284803",
                "lunar": "21.4449788367",
                "kilometers": "8247103.229216961",
                "miles": "5124512.3198416218"
            },
            "orbiting_body": "Earth"
        },
        {
            "close_approach_date": "2062-10-09",
            "close_approach_date_full": "2062-Oct-09 23:12",
            "epoch_date_close_approach": 2927661120000,
            "relative_velocity": {
                "kilometers_per_second": "10.7171459071",
                "kilometers_per_hour": "38581.7252657069",
                "miles_per_hour": "23973.1836796833"
            },
            "miss_distance": {
                "astronomical": "0.1313415555",
                "lunar": "51.0918650895",
                "kilometers": "19648416.945286785",
                "miles": "12208960.152796233"
            },
            "orbiting_body": "Venus"
        }
    ],
    "orbital_data": {
        "orbit_id": "9",
        "orbit_determination_date": "2017-04-06 09:03:15",
        "first_observation_date": "2008-06-30",
        "last_observation_date": "2008-07-11",
        "data_arc_in_days": 11,
        "observations_used": 17,
        "orbit_uncertainty": "9",
        "minimum_orbit_intersection": ".0226203",
        "jupiter_tisserand_invariant": "3.305",
        "epoch_osculation": "2454651.5",
        "eccentricity": ".6494739087032343",
        "semi_major_axis": "2.258531471702524",
        "inclination": "1.987751405199738",
        "ascending_node_longitude": "12.59570941882536",
        "orbital_period": "1239.760076562566",
        "perihelion_distance": ".7916742088466175",
        "perihelion_argument": "199.3904147414787",
        "aphelion_distance": "3.725388734558431",
        "perihelion_time": "2454599.714232702244",
        "mean_anomaly": "15.03748715548458",
        "mean_motion": ".2903787650576374",
        "equinox": "J2000",
        "orbit_class": {
            "orbit_class_type": "APO",
            "orbit_class_description": "Near-Earth asteroid orbits which cross the Earth’s orbit similar to that of 1862 Apollo",
            "orbit_class_range": "a (semi-major axis) > 1.0 AU; q (perihelion) < 1.017 AU"
        }
    },
    "is_sentry_object": false
}